LUDI TANCE 1-01A (L-SA*)
1 51284U 22007A   26157.49204838  .00000722  00000+0  83721-4 0  9995
2 51284  97.8104 165.0640 0001600  90.0342 270.1059 14.88420807236881
LUDI TANCE 1-01B (L-SA*)
1 51822U 22018A   26157.59287141  .00000692  00000+0  80533-4 0  9998
2 51822  97.8109 165.1592 0001579  94.2372 265.9025 14.88423030232135
JILIN-1 GAOFEN 03D15    
1 51839U 22019R   26156.92232892  .04986191  24754-5  94850-3 0  9991
2 51839  97.3560 254.9435 0012717 264.8257  95.1587 16.31769192238342
2022-023F               
1 51951U 22023F   26156.61571186  .00016965  00000+0  67145-3 0  9997
2 51951  63.4460 312.8176 0128936 343.1404  16.5440 15.18178709235953
MERIDIAN 10             
1 52145U 22030A   26156.50560089  .00000223  00000+0  00000+0 0  9992
2 52145  62.6780 142.0470 6780520 272.8634  17.6773  2.00614940 30792
OMNI-L1                 
1 52157U 22033A   26157.44884734  .00002514  00000+0  31791-3 0  9998
2 52157  97.8389 236.8351 0004287 333.8855  26.2142 14.82709966225862
ENMAP                   
1 52159U 22033C   26157.58269319  .00000342  00000+0  58361-4 0  9991
2 52159  97.9790 239.9825 0001406  80.0646 280.0721 14.74978456225091
ARCSAT-1                
1 52161U 22033E   26157.49730442  .00017349  00000+0  27595-3 0  9993
2 52161  97.2747 249.6136 0003913 221.4280 138.6677 15.53357717234044
GLOBAL-18               
1 52196U 22034B   26157.13616950  .00029246  00000+0  60048-3 0  9999
2 52196  52.9830 309.4363 0003508 219.6317 140.4432 15.45795168235251
GAOFEN-3 03             
1 52200U 22035A   26157.61482919  .00000154  00000+0  59801-4 0  9998
2 52200  98.4063 166.3489 0001074  93.8574 266.2738 14.42214097219321
DAQI-1                  
1 52257U 22039A   26157.64297257  .00000301  00000+0  75843-4 0  9994
2 52257  98.1486  96.7133 0002522 305.4378  54.6585 14.57670958220402
BRO-6                   
1 52422U 22047AE  26157.61603128  .00043536  00000+0  77969-3 0  9999
2 52422  97.3395 248.4742 0005736 112.0552 248.1309 15.49826775229511
JILIN-1 GAOFEN 3D27     
1 52444U 22048B   26157.41190938  .00137501  00000+0  10005-2 0  9995
2 52444  97.5699 270.3926 0002538  98.3270 261.8281 15.72917715227781
JILIN-1 GAOFEN 3D28     
1 52445U 22048C   26157.62123583  .00149799  00000+0  96863-3 0  9990
2 52445  97.5643 270.7305 0001740 146.3700 213.7675 15.75637675227861
VIGORIDE-3              
1 52760U 22057AE  26157.14376360  .00007516  00000+0  28483-3 0  9993
2 52760  97.6599 296.8280 0008914 154.7626 205.4049 15.27163249223477
ION SCV-006             
1 52761U 22057AF  26157.60913519  .00016138  00000+0  34164-3 0  9991
2 52761  97.6095 305.7270 0018121 149.5462 210.6843 15.45027521224483
SHERPA-AC1              
1 52763U 22057AH  26156.86313200  .00009397  00000+0  26931-3 0  9993
2 52763  97.6679 305.6196 0008753 127.7405 232.4633 15.36102557223968
OMNI-L2                 
1 52771U 22057AR  26157.17987710  .00001693  00000+0  22276-3 0  9999
2 52771  97.4719 220.2779 0006792  14.7141 345.4270 14.81342137218765
STEP CUBE LAB-II        
1 52897U 22065D   26157.67385808  .00000990  00000+0  20110-3 0  9996
2 52897  98.2221 301.6087 0009843  61.8392 298.3803 14.63287110209967
RANDEV                  
1 52898U 22065E   26157.60935000  .00000973  00000+0  19613-3 0  9992
2 52898  98.2207 301.8916 0009191  62.5244 297.6891 14.63673465209708
SNUGLITE-II             
1 52899U 22065F   26157.64475320  .00001132  00000+0  22358-3 0  9999
2 52899  98.2192 302.4950 0008561  62.6309 297.5763 14.64328514209452
MIMAN                   
1 52900U 22065G   26157.64425663  .00000661  00000+0  14180-3 0  9997
2 52900  98.2249 300.1806 0008751  64.2228 295.9875 14.61832830208905
STARLINK-4362           
1 53043U 22077A   26157.49937245  .00000510  00000+0  39363-4 0  9990
2 53043  97.3993 336.9235 0001840 100.7841 259.3593 15.05645603214279
LARES-2                 
1 53105U 22080A   26154.55208436 -.00000012  00000+0  00000+0 0  9999
2 53105  70.1655 310.0052 0005379 337.8766  22.1504  6.38965171 90790
GREENCUBE (IO-117)      
1 53109U 22080E   26152.46502029 -.00000003  00000+0  00000+0 0  9996
2 53109  70.1435 303.7143 0008869 293.3663  66.6064  6.42583280 91055
STARLINK-4410           
1 53204U 22084R   26157.58337963  .00144415  00000+0  53629-2 0  9990
2 53204  97.5997 218.4507 0001200  86.4378 133.2308 15.26938559  5703
COSMOS 2558             
1 53323U 22089A   26157.53000159  .00121626  00000+0  88295-3 0  9993
2 53323  97.2256 261.1778 0000735 177.8409 182.2859 15.73022723216154
